NORAD_CAT_ID,OBJECT_NAME,OBJECT_TYPE,EPOCH,MEAN_MOTION,ECCENTRICITY,INCLINATION,RA_OF_ASC_NODE,ARG_OF_PERICENTER,MEAN_ANOMALY,BSTAR,MEAN_MOTION_DOT,MEAN_MOTION_DDOT,TLE_LINE0,TLE_LINE1,TLE_LINE2,SEMIMAJOR_AXIS,PERIOD,APOGEE,PERIGEE,DECAYED
52264.0,STARLINK-3795,PAYLOAD,2022-06-22 14:00:01,15.15408571,0.0001729,53.2173,77.0326,36.5736,316.5302,-0.040359,-0.00718712,0.0,0 STARLINK-3795,1 52264U 22041D   22173.58334491 -.00718712  00000-0 -40359-1 0  9990,2 52264  53.2173  77.0326 0001729  36.5736 316.5302 15.15408571  1307,6897.875,95.024,520.933,518.548,0.0
52264.0,STARLINK-3795,PAYLOAD,2022-06-22 22:00:00,15.14901262,0.0001984,53.2175,75.5207,31.5705,340.7133,-0.04119,-0.00722727,0.0,0 STARLINK-3795,1 52264U 22041D   22173.91667824 -.00722727  00000-0 -41190-1 0  9991,2 52264  53.2175  75.5207 0001984  31.5705 340.7133 15.14901262 10893,6899.415,95.056,522.649,519.911,0.0
52264.0,STARLINK-3795,PAYLOAD,2022-06-23 14:00:01,15.13879019,0.0001636,53.2172,72.4969,40.7137,8.0974,-0.042202,-0.00719513,0.0,0 STARLINK-3795,1 52264U 22041D   22174.58334491 -.00719513  00000-0 -42202-1 0  9990,2 52264  53.2172  72.4969 0001636  40.7137   8.0974 15.13879019  1302,6902.521,95.12,525.515,523.257,0.0
52264.0,STARLINK-3795,PAYLOAD,2022-06-23 22:00:00,15.13371255,0.000182,53.2174,70.9888,38.0203,28.1324,-0.043022,-0.00722829,0.0,0 STARLINK-3795,1 52264U 22041D   22174.91667824 -.00722829  00000-0 -43022-1 0  9991,2 52264  53.2174  70.9888 0001820  38.0203  28.1324 15.13371255  1307,6904.065,95.152,527.186,524.673,0.0
52264.0,STARLINK-3795,PAYLOAD,2022-06-24 06:00:02,15.12860785,0.0001592,53.2171,69.4808,45.7265,37.2199,-0.043537,-0.00721136,0.0,0 STARLINK-3795,1 52264U 22041D   22175.25002315 -.00721136  00000-0 -43537-1 0  9998,2 52264  53.2171  69.4808 0001592  45.7265  37.2199 15.12860785 11108,6905.618,95.184,528.582,526.383,0.0
52264.0,STARLINK-3795,PAYLOAD,2022-06-24 14:00:01,15.12350193,0.0001819,53.2172,67.9719,37.7686,61.2344,-0.04419,-0.00721527,0.0,0 STARLINK-3795,1 52264U 22041D   22175.58334491 -.00721527  00000-0 -44190-1 0  9997,2 52264  53.2172  67.9719 0001819  37.7686  61.2344 15.12350193  1300,6907.172,95.216,530.293,527.78,0.0
52264.0,STARLINK-3795,PAYLOAD,2022-06-24 22:00:01,15.11840577,0.0002143,53.2172,66.4674,31.7394,82.8306,-0.044843,-0.00721829,0.0,0 STARLINK-3795,1 52264U 22041D   22175.91668981 -.00721829  00000-0 -44843-1 0  9998,2 52264  53.2172  66.4674 0002143  31.7394  82.8306 15.11840577  1301,6908.724,95.248,532.07,529.1080000000002,0.0
52264.0,STARLINK-3795,PAYLOAD,2022-06-25 06:00:00,15.11330544,0.0001708,53.2171,64.9628,45.1551,84.244,-0.045415,-0.00720724,0.0,0 STARLINK-3795,1 52264U 22041D   22176.25001157 -.00720724  00000-0 -45415-1 0  9991,2 52264  53.2171  64.9628 0001708  45.1551  84.2440 15.11330544 11250,6910.278,95.28,533.3240000000002,530.9630000000002,0.0
52264.0,STARLINK-3795,PAYLOAD,2022-06-25 14:00:01,15.10821277,0.0001879,53.2172,63.4576,39.2424,104.4374,-0.04624,-0.0072331,0.0,0 STARLINK-3795,1 52264U 22041D   22176.58334491 -.00723310  00000-0 -46240-1 0  9998,2 52264  53.2172  63.4576 0001879  39.2424 104.4374 15.10821277  1302,6911.831,95.312,534.995,532.3969999999998,0.0
52264.0,STARLINK-3795,PAYLOAD,2022-06-25 22:00:00,15.10309838,0.0002146,53.2172,61.9567,34.5585,122.7876,-0.046704,-0.00720499,0.0,0 STARLINK-3795,1 52264U 22041D   22176.91667824 -.00720499  00000-0 -46704-1 0  9994,2 52264  53.2172  61.9567 0002146  34.5585 122.7876 15.10309838  1303,6913.391,95.345,536.74,533.773,0.0
52264.0,STARLINK-3795,PAYLOAD,2022-06-26 06:00:00,15.09803502,0.0001913,53.2171,60.4557,40.0413,130.3577,-0.047891,-0.00727942,0.0,0 STARLINK-3795,1 52264U 22041D   22177.25001157 -.00727942  00000-0 -47891-1 0  9991,2 52264  53.2171  60.4557 0001913  40.0413 130.3577 15.09803502 11408,6914.937,95.377,538.125,535.479,0.0
52264.0,STARLINK-3795,PAYLOAD,2022-06-26 14:00:01,15.0921229,0.0002079,53.2172,58.9549,35.3462,147.5641,-0.021947,-0.00337018,0.0,0 STARLINK-3795,1 52264U 22041D   22177.58335648 -.00337018  00000-0 -21947-1 0  9997,2 52264  53.2172  58.9549 0002079  35.3462 147.5641 15.09212290 11452,6916.743,95.414,540.0459999999998,537.17,0.0
52264.0,STARLINK-3795,PAYLOAD,2022-06-26 22:00:00,15.08849388,0.0002152,53.2176,57.459,34.2746,160.5049,-0.0014092,-0.00022652,0.0,0 STARLINK-3795,1 52264U 22041D   22177.91667824 -.00022652  00000-0 -14092-2 0  9997,2 52264  53.2176  57.4590 0002152  34.2746 160.5049 15.08849388  1304,6917.852,95.437,541.205,538.2280000000002,0.0
52264.0,STARLINK-3795,PAYLOAD,2022-06-27 06:00:00,15.08860582,0.0001991,53.2142,55.9687,40.9962,165.3613,-0.0017249,-0.00027651,0.0,0 STARLINK-3795,1 52264U 22041D   22178.25001157 -.00027651  00000-0 -17249-2 0  9997,2 52264  53.2142  55.9687 0001991  40.9962 165.3613 15.08860582 11558,6917.816999999999,95.436,541.06,538.305,0.0
52264.0,STARLINK-3795,PAYLOAD,2022-06-27 14:00:01,15.08847795,0.0001785,53.2126,54.4746,44.0749,173.9111,0.002286,0.00036289,0.0,0 STARLINK-3795,1 52264U 22041D   22178.58334491  .00036289  00000-0  22860-2 0  9993,2 52264  53.2126  54.4746 0001785  44.0749 173.9111 15.08847795 11604,6917.857,95.437,540.956,538.487,0.0
52264.0,STARLINK-3795,PAYLOAD,2022-06-27 22:00:00,15.08870233,0.0001931,53.2126,52.9798,39.8375,189.7741,-0.0041402,-0.00065635,0.0,0 STARLINK-3795,1 52264U 22041D   22178.91667824 -.00065635  00000-0 -41402-2 0  9991,2 52264  53.2126  52.9798 0001931  39.8375 189.7741 15.08870233  1307,6917.788000000001,95.436,540.989,538.317,0.0
52264.0,STARLINK-3795,PAYLOAD,2022-06-28 06:00:00,15.08836624,0.0001928,53.2122,51.4829,39.127,202.0821,-0.0030896,-0.00049121,0.0,0 STARLINK-3795,1 52264U 22041D   22179.25001157 -.00049121  00000-0 -30896-2 0  9997,2 52264  53.2122  51.4829 0001928  39.1270 202.0821 15.08836624 11704,6917.891,95.438,541.089,538.422,0.0
52264.0,STARLINK-3795,PAYLOAD,2022-06-28 14:00:01,15.08792016,0.0001792,53.2124,49.9851,46.0354,206.7416,0.0022573,0.00035773,0.0,0 STARLINK-3795,1 52264U 22041D   22179.58334491  .00035773  00000-0  22573-2 0  9992,2 52264  53.2124  49.9851 0001792  46.0354 206.7416 15.08792016  1304,6918.026999999999,95.441,541.132,538.6519999999998,0.0
52264.0,STARLINK-3795,PAYLOAD,2022-06-28 22:00:00,15.08813199,0.000198,53.2123,48.4905,42.8894,221.4446,-0.00045958,-7.59e-05,0.0,0 STARLINK-3795,1 52264U 22041D   22179.91667824 -.00007590  00000-0 -45958-3 0  9999,2 52264  53.2123  48.4905 0001980  42.8894 221.4446 15.08813199 11808,6917.962,95.439,541.197,538.4580000000002,0.0
52264.0,STARLINK-3795,PAYLOAD,2022-06-29 14:00:01,15.08806927,0.000181,53.212,45.4958,49.0386,238.4265,0.0021655,0.00034313,0.0,0 STARLINK-3795,1 52264U 22041D   22180.58334491  .00034313  00000-0  21655-2 0  9993,2 52264  53.2120  45.4958 0001810  49.0386 238.4265 15.08806927  1309,6917.981,95.44,541.099,538.594,0.0
52264.0,STARLINK-3795,PAYLOAD,2022-06-29 22:00:00,15.088239800000002,0.0002001,53.2117,44.0011,45.2248,253.8142,-0.0001667,-2.939e-05,0.0,0 STARLINK-3795,1 52264U 22041D   22180.91667824 -.00002939  00000-0 -16670-3 0  9992,2 52264  53.2117  44.0011 0002001  45.2248 253.8142 15.08823980 11953,6917.929,95.439,541.179,538.41,0.0
52264.0,STARLINK-3795,PAYLOAD,2022-06-30 14:00:01,15.08820226,0.0001857,53.2131,41.0062,51.6825,270.5119,0.0019597,0.00031022,0.0,0 STARLINK-3795,1 52264U 22041D   22181.58334491  .00031022  00000-0  19597-2 0  9990,2 52264  53.2131  41.0062 0001857  51.6825 270.5119 15.08820226  1300,6917.941,95.439,541.09,538.521,0.0
52264.0,STARLINK-3795,PAYLOAD,2022-06-30 22:00:00,15.08831783,0.0002052,53.2132,39.5115,47.2902,286.4917,3.0439e-05,1.96e-06,0.0,0 STARLINK-3795,1 52264U 22041D   22181.91667824  .00000196  00000-0  30439-4 0  9994,2 52264  53.2132  39.5115 0002052  47.2902 286.4917 15.08831783  1309,6917.906,95.438,541.19,538.351,0.0
52264.0,STARLINK-3795,PAYLOAD,2022-07-01 14:00:01,15.08834015,0.000193,53.2131,36.5166,53.4033,303.5584,0.0017635,0.00027885,0.0,0 STARLINK-3795,1 52264U 22041D   22182.58334491  .00027885  00000-0  17635-2 0  9994,2 52264  53.2131  36.5166 0001930  53.4033 303.5584 15.08834015  1301,6917.899,95.438,541.099,538.429,0.0
52264.0,STARLINK-3795,PAYLOAD,2022-07-01 22:00:00,15.08840842,0.0002131,53.213,35.0218,48.9367,319.626,0.00030434,4.559e-05,0.0,0 STARLINK-3795,1 52264U 22041D   22182.91667824  .00004559  00000-0  30434-3 0  9996,2 52264  53.2130  35.0218 0002131  48.9367 319.6260 15.08840842 12255,6917.878000000002,95.438,541.217,538.269,0.0
52264.0,STARLINK-3795,PAYLOAD,2022-07-02 14:00:01,15.08851504,0.0002012,53.2133,32.0268,54.301,337.4691,0.0015531,0.00024524,0.0,0 STARLINK-3795,1 52264U 22041D   22183.58334491  .00024524  00000-0  15531-2 0  9995,2 52264  53.2133  32.0268 0002012  54.3010 337.4691 15.08851504  1301,6917.845,95.437,541.102,538.318,0.0
52264.0,STARLINK-3795,PAYLOAD,2022-07-02 22:00:00,15.08859704,0.0002199,53.2133,30.5319,49.5536,353.8442,0.0010337,0.00016211,0.0,0 STARLINK-3795,1 52264U 22041D   22183.91667824  .00016211  00000-0  10337-2 0  9994,2 52264  53.2133  30.5319 0002199  49.5536 353.8442 15.08859704  1302,6917.82,95.436,541.206,538.164,0.0
52264.0,STARLINK-3795,PAYLOAD,2022-07-03 14:00:01,15.08864736,0.0001961,53.2138,27.5369,52.522,14.1328,-0.0010286,-0.00016632,0.0,0 STARLINK-3795,1 52264U 22041D   22184.58334491 -.00016632  00000-0 -10286-2 0  9991,2 52264  53.2138  27.5369 0001961  52.5220  14.1328 15.08864736 12514,6917.805,95.436,541.026,538.313,0.0
52264.0,STARLINK-3795,PAYLOAD,2022-07-03 22:00:00,15.08822788,0.0002082,53.2139,26.0421,46.6242,31.6507,0.00042981,6.556e-05,0.0,0 STARLINK-3795,1 52264U 22041D   22184.91667824  .00006556  00000-0  42981-3 0  9997,2 52264  53.2139  26.0421 0002082  46.6242  31.6507 15.08822788  1300,6917.933000000001,95.439,541.238,538.3580000000002,0.0
